CCSDS_OMM_VERS = 2.0
CREATION_DATE  = 
ORIGINATOR     = 

OBJECT_NAME    = STARLINK-36256
OBJECT_ID      = 2025-299B
CENTER_NAME    = EARTH
REF_FRAME      = TEME
TIME_SYSTEM    = UTC
MEAN_ELEMENT_THEORY = SGP/SGP4

EPOCH          = 2026-01-09T00:00:02.998944
MEAN_MOTION    = 15.40683710
ECCENTRICITY   = .0001654
INCLINATION    = 43.0004
RA_OF_ASC_NODE = 152.9133
ARG_OF_PERICENTER = 272.2472
MEAN_ANOMALY   = 269.7513

EPHEMERIS_TYPE = 0
CLASSIFICATION_TYPE = U
NORAD_CAT_ID   = 67103
ELEMENT_SET_NO = 999
REV_AT_EPOCH   = 518
BSTAR          = .32626E-3
MEAN_MOTION_DOT = .13342E-3
MEAN_MOTION_DDOT = 0

CCSDS_OMM_VERS = 2.0
CREATION_DATE  = 
ORIGINATOR     = 

OBJECT_NAME    = STARLINK-36258
OBJECT_ID      = 2025-299C
CENTER_NAME    = EARTH
REF_FRAME      = TEME
TIME_SYSTEM    = UTC
MEAN_ELEMENT_THEORY = SGP/SGP4

EPOCH          = 2026-01-08T10:10:23.815200
MEAN_MOTION    = 15.50674912
ECCENTRICITY   = .00044332
INCLINATION    = 42.9999
RA_OF_ASC_NODE = 155.8986
ARG_OF_PERICENTER = 291.0097
MEAN_ANOMALY   = 69.0289

EPHEMERIS_TYPE = 0
CLASSIFICATION_TYPE = U
NORAD_CAT_ID   = 67104
ELEMENT_SET_NO = 999
REV_AT_EPOCH   = 382
BSTAR          = .21602673E-2
MEAN_MOTION_DOT = .128971E-2
MEAN_MOTION_DDOT = 0

CCSDS_OMM_VERS = 2.0
CREATION_DATE  = 
ORIGINATOR     = 

OBJECT_NAME    = STARLINK-36261
OBJECT_ID      = 2025-299D
CENTER_NAME    = EARTH
REF_FRAME      = TEME
TIME_SYSTEM    = UTC
MEAN_ELEMENT_THEORY = SGP/SGP4

EPOCH          = 2026-01-09T02:22:47.592480
MEAN_MOTION    = 15.40734186
ECCENTRICITY   = .00038953
INCLINATION    = 43.0039
RA_OF_ASC_NODE = 152.3696
ARG_OF_PERICENTER = 266.3272
MEAN_ANOMALY   = 93.7139

EPHEMERIS_TYPE = 0
CLASSIFICATION_TYPE = U
NORAD_CAT_ID   = 67105
ELEMENT_SET_NO = 999
REV_AT_EPOCH   = 392
BSTAR          = .89056297E-3
MEAN_MOTION_DOT = .37127E-3
MEAN_MOTION_DDOT = 0

CCSDS_OMM_VERS = 2.0
CREATION_DATE  = 
ORIGINATOR     = 

OBJECT_NAME    = STARLINK-36259
OBJECT_ID      = 2025-299E
CENTER_NAME    = EARTH
REF_FRAME      = TEME
TIME_SYSTEM    = UTC
MEAN_ELEMENT_THEORY = SGP/SGP4

EPOCH          = 2026-01-09T14:00:01.999872
MEAN_MOTION    = 15.40674510
ECCENTRICITY   = .00016437
INCLINATION    = 42.9994
RA_OF_ASC_NODE = 149.3430
ARG_OF_PERICENTER = 278.7794
MEAN_ANOMALY   = 349.5351

EPHEMERIS_TYPE = 0
CLASSIFICATION_TYPE = U
NORAD_CAT_ID   = 67106
ELEMENT_SET_NO = 999
REV_AT_EPOCH   = 528
BSTAR          = .39268664E-3
MEAN_MOTION_DOT = .16121E-3
MEAN_MOTION_DDOT = 0

CCSDS_OMM_VERS = 2.0
CREATION_DATE  = 
ORIGINATOR     = 

OBJECT_NAME    = STARLINK-36196
OBJECT_ID      = 2025-299F
CENTER_NAME    = EARTH
REF_FRAME      = TEME
TIME_SYSTEM    = UTC
MEAN_ELEMENT_THEORY = SGP/SGP4

EPOCH          = 2026-01-07T17:09:03.918816
MEAN_MOTION    = 15.50654455
ECCENTRICITY   = .00019184
INCLINATION    = 43.0000
RA_OF_ASC_NODE = 160.0353
ARG_OF_PERICENTER = 268.6018
MEAN_ANOMALY   = 91.4623

EPHEMERIS_TYPE = 0
CLASSIFICATION_TYPE = U
NORAD_CAT_ID   = 67107
ELEMENT_SET_NO = 999
REV_AT_EPOCH   = 371
BSTAR          = .15878135E-2
MEAN_MOTION_DOT = .94191E-3
MEAN_MOTION_DDOT = 0

CCSDS_OMM_VERS = 2.0
CREATION_DATE  = 
ORIGINATOR     = 

OBJECT_NAME    = STARLINK-36208
OBJECT_ID      = 2025-299G
CENTER_NAME    = EARTH
REF_FRAME      = TEME
TIME_SYSTEM    = UTC
MEAN_ELEMENT_THEORY = SGP/SGP4

EPOCH          = 2026-01-09T15:30:49.227840
MEAN_MOTION    = 15.50645964
ECCENTRICITY   = .00001028
INCLINATION    = 43.0001
RA_OF_ASC_NODE = 148.7306
ARG_OF_PERICENTER = 267.1824
MEAN_ANOMALY   = 92.9025

EPHEMERIS_TYPE = 0
CLASSIFICATION_TYPE = U
NORAD_CAT_ID   = 67108
ELEMENT_SET_NO = 999
REV_AT_EPOCH   = 401
BSTAR          = .12836064E-2
MEAN_MOTION_DOT = .75876E-3
MEAN_MOTION_DDOT = 0

CCSDS_OMM_VERS = 2.0
CREATION_DATE  = 
ORIGINATOR     = 

OBJECT_NAME    = STARLINK-35764
OBJECT_ID      = 2025-299H
CENTER_NAME    = EARTH
REF_FRAME      = TEME
TIME_SYSTEM    = UTC
MEAN_ELEMENT_THEORY = SGP/SGP4

EPOCH          = 2026-01-09T14:00:01.999872
MEAN_MOTION    = 15.40657697
ECCENTRICITY   = .00014357
INCLINATION    = 42.9998
RA_OF_ASC_NODE = 149.4637
ARG_OF_PERICENTER = 273.8229
MEAN_ANOMALY   = 304.7961

EPHEMERIS_TYPE = 0
CLASSIFICATION_TYPE = U
NORAD_CAT_ID   = 67109
ELEMENT_SET_NO = 999
REV_AT_EPOCH   = 517
BSTAR          = .39113769E-3
MEAN_MOTION_DOT = .16047E-3
MEAN_MOTION_DDOT = 0

CCSDS_OMM_VERS = 2.0
CREATION_DATE  = 
ORIGINATOR     = 

OBJECT_NAME    = STARLINK-35781
OBJECT_ID      = 2025-299J
CENTER_NAME    = EARTH
REF_FRAME      = TEME
TIME_SYSTEM    = UTC
MEAN_ELEMENT_THEORY = SGP/SGP4

EPOCH          = 2026-01-07T09:23:19.023360
MEAN_MOTION    = 15.49882893
ECCENTRICITY   = .0002324
INCLINATION    = 42.9989
RA_OF_ASC_NODE = 161.9098
ARG_OF_PERICENTER = 326.7971
MEAN_ANOMALY   = 33.2743

EPHEMERIS_TYPE = 0
CLASSIFICATION_TYPE = U
NORAD_CAT_ID   = 67110
ELEMENT_SET_NO = 999
REV_AT_EPOCH   = 366
BSTAR          = .30968805E-3
MEAN_MOTION_DOT = .17425E-3
MEAN_MOTION_DDOT = 0

CCSDS_OMM_VERS = 2.0
CREATION_DATE  = 
ORIGINATOR     = 

OBJECT_NAME    = STARLINK-35875
OBJECT_ID      = 2025-299K
CENTER_NAME    = EARTH
REF_FRAME      = TEME
TIME_SYSTEM    = UTC
MEAN_ELEMENT_THEORY = SGP/SGP4

EPOCH          = 2026-01-08T10:07:25.915008
MEAN_MOTION    = 15.50627989
ECCENTRICITY   = .00016349
INCLINATION    = 43.0000
RA_OF_ASC_NODE = 155.8834
ARG_OF_PERICENTER = 269.8071
MEAN_ANOMALY   = 90.2602

EPHEMERIS_TYPE = 0
CLASSIFICATION_TYPE = U
NORAD_CAT_ID   = 67111
ELEMENT_SET_NO = 999
REV_AT_EPOCH   = 382
BSTAR          = .16179075E-2
MEAN_MOTION_DOT = .95912E-3
MEAN_MOTION_DDOT = 0

CCSDS_OMM_VERS = 2.0
CREATION_DATE  = 
ORIGINATOR     = 

OBJECT_NAME    = STARLINK-35906
OBJECT_ID      = 2025-299L
CENTER_NAME    = EARTH
REF_FRAME      = TEME
TIME_SYSTEM    = UTC
MEAN_ELEMENT_THEORY = SGP/SGP4

EPOCH          = 2026-01-08T11:39:12.152448
MEAN_MOTION    = 15.50592700
ECCENTRICITY   = .00018387
INCLINATION    = 43.0004
RA_OF_ASC_NODE = 155.5002
ARG_OF_PERICENTER = 270.8240
MEAN_ANOMALY   = 89.2409

EPHEMERIS_TYPE = 0
CLASSIFICATION_TYPE = U
NORAD_CAT_ID   = 67112
ELEMENT_SET_NO = 999
REV_AT_EPOCH   = 383
BSTAR          = .14974161E-2
MEAN_MOTION_DOT = .88549E-3
MEAN_MOTION_DDOT = 0

CCSDS_OMM_VERS = 2.0
CREATION_DATE  = 
ORIGINATOR     = 

OBJECT_NAME    = STARLINK-35789
OBJECT_ID      = 2025-299M
CENTER_NAME    = EARTH
REF_FRAME      = TEME
TIME_SYSTEM    = UTC
MEAN_ELEMENT_THEORY = SGP/SGP4

EPOCH          = 2026-01-09T14:00:01.999872
MEAN_MOTION    = 15.40655934
ECCENTRICITY   = .00019291
INCLINATION    = 42.9999
RA_OF_ASC_NODE = 149.1903
ARG_OF_PERICENTER = 263.9172
MEAN_ANOMALY   = 66.5583

EPHEMERIS_TYPE = 0
CLASSIFICATION_TYPE = U
NORAD_CAT_ID   = 67113
ELEMENT_SET_NO = 999
REV_AT_EPOCH   = 517
BSTAR          = .65472167E-3
MEAN_MOTION_DOT = .27103E-3
MEAN_MOTION_DDOT = 0

CCSDS_OMM_VERS = 2.0
CREATION_DATE  = 
ORIGINATOR     = 

OBJECT_NAME    = STARLINK-36180
OBJECT_ID      = 2025-299N
CENTER_NAME    = EARTH
REF_FRAME      = TEME
TIME_SYSTEM    = UTC
MEAN_ELEMENT_THEORY = SGP/SGP4

EPOCH          = 2026-01-08T16:16:29.214624
MEAN_MOTION    = 15.50610458
ECCENTRICITY   = .000167
INCLINATION    = 43.0007
RA_OF_ASC_NODE = 154.3642
ARG_OF_PERICENTER = 272.9280
MEAN_ANOMALY   = 87.1389

EPHEMERIS_TYPE = 0
CLASSIFICATION_TYPE = U
NORAD_CAT_ID   = 67114
ELEMENT_SET_NO = 999
REV_AT_EPOCH   = 386
BSTAR          = .19216E-2
MEAN_MOTION_DOT = .114176E-2
MEAN_MOTION_DDOT = 0

